SL-8 R/B                
1 15483U 85006B   26160.30332490  .00000213  00000+0  79368-4 0  9991
2 15483  74.0457  92.5712 0018587 341.0891 135.7605 14.37831483167194
SL-12 R/B(2)            
1 15772U 85042D   26160.55596263 -.00000012  00000+0  16180-4 0  9990
2 15772  71.1084 253.6388 0035870 339.3788  35.7635 14.22004587127455
SL-14 R/B               
1 15945U 85069B   26160.36085222  .00000407  00000+0  43186-4 0  9991
2 15945  82.5265 298.7268 0017353 246.9029 113.0359 14.86509390186458
SL-16 R/B               
1 16182U 85097B   26160.50169478 -.00000135  00000+0 -43594-4 0  9991
2 16182  71.0038 307.2583 0005562 126.9759 301.4674 14.16612197100233
SL-14 R/B               
1 16496U 86006B   26160.51469058  .00000551  00000+0  55786-4 0  9994
2 16496  82.5261 173.3336 0075517 329.3029  30.3780 14.86937850162855
COSMOS 1743             
1 16719U 86034A   26160.54568760  .00044338  00000+0  42835-3 0  9997
2 16719  82.5281 336.8544 0003604 307.7418  52.3514 15.66256130194591
SL-14 R/B               
1 16792U 86046B   26160.54218051  .00000365  00000+0  39239-4 0  9993
2 16792  82.4816 353.4003 0021614 285.5258  74.3571 14.85665926140041
SL-14 R/B               
1 16882U 86055B   26160.42175921  .00000354  00000+0  37886-4 0  9992
2 16882  82.5210  40.4340 0019727  32.7302 144.6481 14.85717700132984
AJISAI (EGS)            
1 16908U 86061A   26160.51933333 -.00000083  00000+0  10026-3 0  9993
2 16908  50.0060 170.9742 0011257 161.1096 326.6729 12.44516736479438
SL-14 R/B               
1 17567U 87024B   26160.54223525  .00000348  00000+0  36751-4 0  9990
2 17567  82.5282   6.4371 0017238 320.4550  39.5407 14.86208194101773
COSMOS 1833             
1 17589U 87027A   26160.32140985  .00000319  00000+0  19624-3 0  9998
2 17589  70.9160 133.4022 0022600  68.0974 292.2547 14.13044058 23268
SL-16 R/B               
1 17590U 87027B   26160.52245130  .00000101  00000+0  73689-4 0  9991
2 17590  71.0033  82.9799 0006159 321.4449  38.6235 14.17172243 28357
SL-14 R/B               
1 17912U 87038B   26160.51703061  .00000307  00000+0  32784-4 0  9991
2 17912  82.5013 210.2969 0018248 217.4236 142.5711 14.85440737 92867
COSMOS 1844             
1 17973U 87041A   26160.54073896 -.00000162  00000+0 -58904-4 0  9994
2 17973  70.8980 200.4364 0033218 246.5919 113.1708 14.14569569 16573
SL-14 R/B               
1 18153U 87055B   26160.54526656  .00000395  00000+0  42477-4 0  9991
2 18153  82.4996 262.4326 0022043  71.4303 288.9305 14.85705684 83578
COSMOS 1867             
1 18187U 87060A   26160.37866128 -.00000061  00000+0  14691-4 0  9994
2 18187  65.0115  49.9271 0016353 282.0912  77.8340 14.31514950 33063
SL-14 R/B               
1 18749U 88001B   26160.34467725  .00000411  00000+0  44629-4 0  9993
2 18749  82.5126 109.1514 0016626 297.9151  62.0381 14.85603871 55633
COSMOS 1933             
1 18958U 88020A   26160.46036959  .00003136  00000+0  14992-3 0  9996
2 18958  82.5123 160.0870 0002740 218.3687 141.7352 15.18665972 64153
SL-3 R/B                
1 19046U 88032B   26160.54495662  .00003598  00000+0  16540-3 0  9990
2 19046  97.5251 143.5938 0023654 273.7411  86.1119 15.20783068 66063
SL-16 R/B               
1 19120U 88039B   26160.51094659  .00000042  00000+0  42619-4 0  9996
2 19120  71.0146 234.3895 0022673 204.4580 155.5472 14.19629365971418
COSMOS 1953             
1 19210U 88050A   26159.77770826  .00007630  00000+0  26229-3 0  9990
2 19210  82.5077  66.5128 0011446 152.4135 207.7715 15.29860438 51707
SL-8 R/B                
1 19257U 88053B   26160.49840056  .00000203  00000+0  74133-4 0  9995
2 19257  74.0479 303.2304 0019201 101.4113 326.1216 14.38964688989808
COSMOS 1975             
1 19573U 88093A   26160.36787060  .00006916  00000+0  24241-3 0  9992
2 19573  82.5203  25.5671 0010542 199.1998 160.8846 15.29226254 33413
SL-14 R/B               
1 19574U 88093B   26160.52917168  .00000441  00000+0  47798-4 0  9995
2 19574  82.5305 315.8349 0022198  94.0491 335.1939 14.85735991 14654
SL-16 R/B               
1 19650U 88102B   26160.51800727 -.00000135  00000+0 -43948-4 0  9997
2 19650  71.0005 318.2763 0016074 236.0917 123.8678 14.16166509939894
INTERCOSMOS 24          
1 20261U 89080A   26160.39184727  .00000807  00000+0  22805-3 0  9996
2 20261  82.6074  44.7166 1188381  79.9768 293.3043 12.59649045678341
SL-14 R/B               
1 20262U 89080C   26160.32266634  .00000391  00000+0  11652-3 0  9994
2 20262  82.5922 114.3599 1229194 335.3968  19.2909 12.50565697671605
DELTA 1 R/B             
1 20323U 89089B   26160.49428643  .00000309  00000+0  84914-4 0  9990
2 20323  97.0640 353.2836 0068564 191.2612 168.7056 14.50726201909042
ARIANE 40 R/B           
1 20443U 90005H   26160.40096982  .00000211  00000+0  80441-4 0  9994
2 20443  98.2962 218.2587 0008839 291.2848  68.7397 14.39923317906003
DELTA 2 R/B(1)          
1 20453U 90008B   26160.04191368  .00066682  00000+0  51791-3 0  9991
2 20453  35.6033 290.1009 0067007  36.7622 323.7688 15.67552285940425
